AMOS-17                 
1 44479U 19050A   22227.99483007  .00000095  00000+0  00000+0 0  9990
2 44479   0.0165 105.0928 0002451  59.8779 174.5023  1.00272659 11134
AEHF-5 (USA 292)        
1 44481U 19051A   22227.80304354  .00000072  00000+0  00000+0 0  9996
2 44481   4.2511 304.4054 0005760 200.4285 162.9803  1.00266485 11222
EUTELSAT 5 WEST B       
1 44624U 19067A   22226.06918196 -.00000060  00000+0  00000+0 0  9992
2 44624   0.0697 344.5387 0007064 143.8281 213.9880  1.00271867 10376
MEV-1                   
1 44625U 19067B   22225.68483685 -.00000221  00000+0  00000+0 0  9999
2 44625   0.0187 232.4952 0001294 299.7536   8.8794  1.00267299  8902
TJS-4                   
1 44637U 19070A   22227.94639841 -.00000184  00000+0  00000+0 0  9992
2 44637   0.0516 270.3240 0003633 116.6482   1.5498  1.00273496 10492
BEIDOU-3 IGSO-3         
1 44709U 19073A   22226.92457512 -.00000179  00000+0  10000-3 0  9994
2 44709  57.1698 295.7814 0027310 179.8625 299.2256  1.00290711 10387
TIBA-1                  
1 44800U 19080A   22226.94510669  .00000139  00000+0  00000+0 0  9999
2 44800   0.0542   2.4346 0002311 157.7409 178.8537  1.00271220  9999
INMARSAT GX5            
1 44801U 19080B   22226.68489774  .00000058  00000+0  00000+0 0  9993
2 44801   0.0436 338.8378 0001912 171.9383  69.8575  1.00273134 10043
JCSAT-18 (KACIFIC 1)    
1 44868U 19091A   22228.41985368 -.00000214  00000+0  00000+0 0  9996
2 44868   0.0134  97.7892 0001094 118.9553  49.1699  1.00268297 10046
ELEKTRO-L 3             
1 44903U 19095A   22226.92677528 -.00000114  00000+0  00000+0 0  9999
2 44903   0.0864 295.3024 0001606 209.0361 228.6222  1.00272245  9645
SHIJIAN-20 (SJ-20)      
1 44910U 19097A   22226.99247046  .00000139  00000+0  00000+0 0  9990
2 44910   1.3175  91.4421 0005009  44.1728 218.5112  1.00269955  9633
TJS-5                   
1 44978U 20002A   22226.12721845 -.00000360  00000+0  00000+0 0  9998
2 44978   0.3175 282.2612 0002299 220.0371 333.4363  1.00266400  9621
GSAT-30                 
1 45026U 20005A   22227.79864951 -.00000179  00000+0  00000+0 0  9994
2 45026   0.0160 260.5157 0003940 214.3092 219.8563  1.00268815  9474
EUTELSAT KONNECT        
1 45027U 20005B   22225.69172568  .00000030  00000+0  00000+0 0  9993
2 45027   0.0458  96.1727 0000119 257.0901 225.0419  1.00268068 10256
JCSAT-17                
1 45245U 20013A   22226.86382257 -.00000330  00000+0  00000+0 0  9996
2 45245   6.0988 345.5332 0004563 162.4131 262.2612  1.00270442  9172
GEO-KOMPSAT-2B          
1 45246U 20013B   22227.42270209 -.00000360  00000+0  00000+0 0  9996
2 45246   0.0383 271.0407 0001252 312.3975  20.7722  1.00271708  9227
BEIDOU-3 G2             
1 45344U 20017A   22226.92781678 -.00000156  00000+0  00000+0 0  9993
2 45344   2.0327 354.9810 0004968 136.6599 245.7163  1.00271933  9207
AEHF-6 (USA 298)        
1 45465U 20022B   22226.86559088 -.00000313  00000+0  00000+0 0  9999
2 45465   5.8102 302.3813 0043808 359.4164 110.8221  1.00272946  8955
BEIDOU-3 G3             
1 45807U 20040A   22226.85256424 -.00000370  00000+0  00000+0 0  9999
2 45807   1.3118 304.9192 0006991 329.6533 106.1583  1.00270736  8013
APSTAR 6D               
1 45863U 20045A   22226.51831594 -.00000336  00000+0  00000+0 0  9998
2 45863   0.0144  89.1992 0002343  38.6969 155.6077  1.00269821  7791
KOREASAT 116            
1 45920U 20048A   22226.85653509 -.00000379  00000+0  00000+0 0  9997
2 45920   0.0138 112.6406 0001084  49.8598 225.2760  1.00271341  7572
EXPRESS 103             
1 45985U 20053A   22227.80303700 -.00000295  00000+0  00000+0 0  9992
2 45985   0.0599 279.4637 0000821 349.4325  80.8626  1.00272690  7593
EXPRESS 80              
1 45986U 20053B   22226.87977900 -.00000152  00000+0  00000+0 0  9990
2 45986   0.0236 243.4700 0000904  72.1316  44.3911  1.00267300  7589
BSAT-4B                 
1 46112U 20056A   22226.85245625 -.00000367  00000+0  00000+0 0  9993
2 46112   0.0337 157.0626 0004004 348.0874 234.7960  1.00270466  7327
MEV-2                   
1 46113U 20056B   22225.69006888 -.00000030  00000+0  00000+0 0  9998
2 46113   0.0178 221.7361 0000899 321.1359  26.6623  1.00269393 66476
GALAXY 30 (G-30)        
1 46114U 20056C   22228.18943288  .00000023  00000+0  00000+0 0  9991
2 46114   0.0176 102.1641 0001932  48.1718 117.3992  1.00272084  7352
GAOFEN 13               
1 46610U 20071A   22227.72040878 -.00000377  00000+0  00000+0 0  9994
2 46610   0.3507 263.5882 0003704 277.6678 159.9023  1.00265626  6840
TIANTONG-1 2            
1 46916U 20082A   22226.85901009 -.00000372  00000+0  00000+0 0  9995
2 46916   3.9897 295.0430 0002676 206.3159 256.0250  1.00273186  6592
LUCAS (JDRS-1)          
1 47202U 20089A   22226.77073100 -.00000252  00000+0  00000+0 0  9991
2 47202   0.0400 105.7898 0002103  10.2559 215.3327  1.00271012  6358
SXM-7                   
1 47240U 20096A   22228.42618472 -.00000034  00000+0  00000+0 0  9990
2 47240   0.0455 282.6984 0001592  45.0166  35.1766  1.00263331  6295
CMS-01                  
1 47256U 20099A   22227.79864951 -.00000179  00000+0  00000+0 0  9994
2 47256   0.0667 272.3696 0005113 348.9853  73.2931  1.00273478  6137
TURKSAT 5A              
1 47306U 21001A   22225.59771678  .00000135  00000+0  00000+0 0  9994
2 47306   0.0180 104.5901 0000139  60.5244  42.9748  1.00272257  5909
TIANTONG-1 3            
1 47321U 21003A   22226.75841226 -.00000170  00000+0  00000+0 0  9999
2 47321   4.3055 308.1605 0003893 192.4706 177.0504  1.00272201  5915
TJS-6                   
1 47613U 21010A   22228.33659279  .00000030  00000+0  00000+0 0  9996
2 47613   0.5170 284.9817 0000588 174.7735 164.8444  1.00266222  5771
SBIRS GEO-5 (USA 315)   
1 48618U 21042A   22224.97696199  .00000103  00000+0  00000+0 0  9996
2 48618   7.2549 326.0983 0002942 162.1631 205.7262  1.00272227  4689
FENGYUN 4B              
1 48808U 21047A   22227.63594250 -.00000337  00000+0  00000+0 0  9993
2 48808   0.1138  83.1468 0002038 295.8461 307.0639  1.00276015  4511
SXM-8                   
1 48838U 21049A   22228.47277160 -.00000217  00000+0  00000+0 0  9996
2 48838   0.0509 297.3671 0002083  56.2365  56.2193  1.00270557  4582
TIANLIAN 1-05           
1 49011U 21063A   22226.80768043  .00000091  00000+0  00000+0 0  9995
2 49011   2.0232 282.5053 0004232 235.6690 112.5293  1.00272039  4015
STAR ONE D2             
1 49055U 21069A   22228.29261422 -.00000278  00000+0  00000+0 0  9991
2 49055   0.0198 115.6647 0002656  44.4783 199.8527  1.00272510  3868
EUTELSAT QUANTUM        
1 49056U 21069B   22225.69983531  .00000107  00000+0  00000+0 0  9995
2 49056   0.0114  32.6437 0001805 107.3617 121.7277  1.00273559  3851
CHINASAT 2E (ZX 2E)     
1 49062U 21071A   22226.09835043 -.00000308  00000+0  00000+0 0  9998
2 49062   0.0319 157.0096 0000869 297.4448   1.4259  1.00267385  3988
TJS-7                   
1 49115U 21077A   22228.29630706 -.00000243  00000+0  00000+0 0  9994
2 49115   0.1631 258.2467 0000837 217.4910 102.1269  1.00270525  3768
CHINASAT 9B             
1 49125U 21080A   22227.74583233 -.00000327  00000+0  00000+0 0  9993
2 49125   0.0574 108.1430 0003298  51.8005 174.0608  1.00269704  3588
SHIJIAN-21 (SJ-21)      
1 49330U 21094A   22227.76637050 -.00000430  00000+0  00000+0 0  9990
2 49330   8.5595  49.6648 0109734  16.4762 301.2688  1.00412246  3203
SYRACUSE 4A             
1 49333U 21095B   22226.89141573  .00000118  00000+0  00000+0 0  9999
2 49333   0.0137  97.9758 0001858  54.7225 176.9727  1.00271511  3928
QZS-1R                  
1 49336U 21096A   22227.86458333 -.00000316  00000+0  00000+0 0  9997
2 49336  34.5803 100.8907 0740954 268.9307  36.1864  1.00306080  2962
CHINASAT 1D (ZX 1D)     
1 49505U 21114A   22226.86351473 -.00000354  00000+0  00000+0 0  9994
2 49505   1.3299 278.4984 0002440 230.7321 254.9936  1.00268960  2775
STPSAT-6                
1 49817U 21118A   22228.26086347 -.00000059  00000+0  00000+0 0  9997
2 49817   0.0115 130.4690 0000627  51.3264 125.0886  1.00272516  2520
LDPE-1                  
1 49818U 21118B   22228.55555605 -.00000023  00000+0  00000+0 0  9999
2 49818   0.5200 100.9290 0002356 107.6187 108.6361  1.01197083  2531
EXPRESS AMU-7           
1 50001U 21123A   22227.69690217 -.00000258  00000+0  00000+0 0  9994
2 50001   0.0528 267.3061 0001043  17.7066  74.9596  1.00265389  2492
EXPRESS AMU-3           
1 50002U 21123B   22226.81605422 -.00000339  00000+0  00000+0 0  9992
2 50002   0.0540 262.3516 0000118 333.6492 123.9803  1.00272256  2444
TIANLIAN 2-02           
1 50005U 21124A   22227.60889801 -.00000029  00000+0  00000+0 0  9995
2 50005   2.3982 281.8411 0003243 189.5915 242.7467  1.00273249  2564
TURKSAT 5B              
1 50212U 21126A   22225.70882671  .00000127  00000+0  00000+0 0  9992
2 50212   0.0718 307.3294 0001481  34.4211 277.5191  1.00272577  2224
SHIYAN 12 01 (SY-12 01) 
1 50321U 21129A   22226.93914749  .00000079  00000+0  00000+0 0  9990
2 50321   0.1181 161.9360 0000725 158.3054 359.0317  1.00137427  2432
SHIYAN 12 02 (SY-12 02) 
1 50322U 21129B   22227.77248045 -.00000320  00000+0  00000+0 0  9993
2 50322   0.1183 161.3854 0002839 105.5496 107.8538  1.00427390  2445
TJS-9                   
1 50574U 21135A   22226.86765153 -.00000316  00000+0  00000+0 0  9997
2 50574   0.0840 274.6453 0003295 148.6300 349.5645  1.00272716  2371
USA 324                 
1 51280U 22006A   22226.16666667 -.00000079  00000+0  00000+0 0  9999
2 51280   0.1895  98.3279 0001297 229.5658  41.8257  1.00500957  2045
USA 325                 
1 51281U 22006B   22227.67486501 -.00000093  00000+0  00000+0 0  9990
2 51281   0.0934  98.4390 0000897 303.1707 158.5183  1.00155216  2052
GOES 18                 
1 51850U 22021A   22228.47917257  .00000084  00000+0  00000+0 0  9994
2 51850   0.0334  84.7749 0002896 124.8307 150.7458  1.00272934  1762
CHINASAT 6D             
1 52255U 22038A   22225.71577171 -.00000372  00000+0  00000+0 0  9994
2 52255   0.0274 275.0538 0002271 248.7112 181.0957  1.00272701  1362
